OBJECT_NAME,OBJECT_ID,EPOCH,MEAN_MOTION,ECCENTRICITY,INCLINATION,RA_OF_ASC_NODE,ARG_OF_PERICENTER,MEAN_ANOMALY,EPHEMERIS_TYPE,CLASSIFICATION_TYPE,NORAD_CAT_ID,ELEMENT_SET_NO,REV_AT_EPOCH,BSTAR,MEAN_MOTION_DOT,MEAN_MOTION_DDOT
ONEWEB-0473,2022-012AH,2026-07-06T22:54:32.103072,13.10368451,.00017984,87.8815,32.3372,90.5009,269.6324,0,U,51653,999,21189,.21223458E-2,.754E-5,0
ONEWEB-0474,2022-012AJ,2026-07-06T22:42:19.038816,13.10372461,.00015313,87.8826,32.3251,89.3231,270.8072,0,U,51654,999,21188,.16368694E-2,.584E-5,0
ONEWEB-0475,2022-012AK,2026-07-07T10:06:45.296640,13.17648040,.0001229,87.9139,1.8466,102.3656,257.7613,0,U,51655,999,21635,.44079348E-4,.3E-6,0
ONEWEB-0490,2022-138A,2026-07-06T16:41:15.584064,13.19725932,.00019579,87.9191,301.0827,106.2938,253.8410,0,U,54113,999,17940,-.28778372E-4,.1E-7,0
ONEWEB-0492,2022-138B,2026-07-06T20:55:59.338848,13.19727224,.00021459,87.9185,301.0477,105.5755,254.5615,0,U,54114,999,17943,.18667468E-3,.88E-6,0
ONEWEB-0495,2022-138C,2026-07-07T07:19:13.081728,13.19726333,.00019548,87.9185,300.9639,120.9874,239.1451,0,U,54115,999,17947,.11871809E-3,.6E-6,0
ONEWEB-0497,2022-138D,2026-07-07T05:48:14.435136,13.19726156,.00019682,87.9190,300.9697,101.8446,258.2907,0,U,54116,999,17945,-.82955E-5,.1E-6,0
ONEWEB-0499,2022-138E,2026-07-06T20:18:27.067104,13.19723771,.00018052,87.9183,301.0564,106.0710,254.0621,0,U,54117,999,17941,-.88923666E-4,-.23E-6,0
ONEWEB-0500,2022-138F,2026-07-06T20:21:53.577792,13.19725603,.00020559,87.9191,301.0514,100.3677,259.7688,0,U,54118,999,17942,-.13157234E-3,-.4E-6,0
ONEWEB-0501,2022-138G,2026-07-06T21:05:06.871200,13.19726329,.00018546,87.9190,301.0454,113.0049,247.1280,0,U,54119,999,17940,.32685795E-3,.144E-5,0
ONEWEB-0502,2022-138H,2026-07-07T05:50:30.899616,13.19725525,.0001796,87.9193,300.9618,106.1129,254.0202,0,U,54120,999,17947,.9923281E-5,.17E-6,0
ONEWEB-0503,2022-138J,2026-07-06T20:28:42.627360,13.19726435,.00017743,87.9195,301.0454,96.0465,264.0870,0,U,54121,999,17941,-.12225657E-3,-.36E-6,0
ONEWEB-0504,2022-138K,2026-07-07T07:05:34.355328,13.19726059,.00017592,87.9195,300.9621,105.3441,254.7886,0,U,54122,999,17948,.29438558E-4,.25E-6,0
ONEWEB-0505,2022-138L,2026-07-07T07:01:00.057792,13.19727334,.00017755,87.9190,300.9634,114.6021,245.5297,0,U,54123,999,17946,.18239968E-4,.2E-6,0
ONEWEB-0506,2022-138M,2026-07-06T08:34:31.544256,13.19724759,.0001833,87.9192,301.1472,110.3616,249.7714,0,U,54124,999,17933,.12095409E-3,.61E-6,0
ONEWEB-0507,2022-138N,2026-07-07T06:54:11.818656,13.19725903,.00019528,87.9185,300.9720,107.2141,252.9205,0,U,54125,999,17950,-.6277119E-5,.1E-6,0
ONEWEB-0508,2022-138P,2026-07-07T06:49:39.060768,13.19725730,.00020352,87.9185,300.9721,113.5422,246.5925,0,U,54126,999,17948,.93426406E-4,.5E-6,0
ONEWEB-0509,2022-138Q,2026-07-07T06:13:14.094624,13.19724061,.00019161,87.9195,300.9691,104.9435,255.1910,0,U,54127,999,17945,.20662884E-3,.96E-6,0
ONEWEB-0510,2022-138R,2026-07-07T04:58:52.072896,13.20770939,.00021628,87.9189,270.4468,88.0290,272.1091,0,U,54128,999,18192,-.64225429E-3,-.248E-5,0
ONEWEB-0511,2022-138S,2026-07-07T06:08:40.819200,13.19727691,.00016651,87.9190,300.9717,99.7472,260.3849,0,U,54129,999,17948,.26210909E-3,.118E-5,0
ONEWEB-0512,2022-138T,2026-07-07T05:57:19.359936,13.19726808,.00017291,87.9183,300.9767,108.7324,251.3997,0,U,54130,999,17945,.14602591E-3,.71E-6,0
ONEWEB-0513,2022-138U,2026-07-06T20:47:52.430784,13.20269593,.00011804,87.9190,300.9945,120.7260,239.3990,0,U,54131,999,17931,.13000222E-3,.65E-6,0
ONEWEB-0514,2022-138V,2026-07-07T06:20:04.551648,13.19726151,.00019851,87.9192,300.9695,96.8407,263.2952,0,U,54132,999,17947,.21997945E-3,.101E-5,0
ONEWEB-0515,2022-138W,2026-07-06T15:55:53.145120,13.20771135,.00029065,87.9198,270.5504,94.6004,265.5462,0,U,54133,999,18187,.51648841E-4,.34E-6,0
ONEWEB-0516,2022-138X,2026-07-07T07:32:50.376480,13.19727225,.00020615,87.9185,300.9636,104.7552,255.3809,0,U,54134,999,17948,.20587468E-3,.95E-6,0
ONEWEB-0517,2022-138Y,2026-07-07T07:03:17.685216,13.19725805,.00017223,87.9193,300.9614,94.5093,265.6236,0,U,54135,999,17948,.48271346E-4,.32E-6,0
ONEWEB-0518,2022-138Z,2026-07-06T20:35:30.433632,13.19723663,.00021341,87.9185,301.0568,103.4994,256.6377,0,U,54136,999,17942,.15929341E-4,.19E-6,0
ONEWEB-0519,2022-138AA,2026-07-07T06:17:46.833504,13.19727342,.00017963,87.9189,300.9694,95.9201,264.2137,0,U,54137,999,17948,.31493816E-3,.139E-5,0
ONEWEB-0520,2022-138AB,2026-07-07T07:07:50.780064,13.19726237,.00019201,87.9193,300.9622,109.1602,250.9738,0,U,54138,999,17947,.35457712E-4,.27E-6,0
ONEWEB-0521,2022-138AC,2026-07-06T21:00:32.253984,13.19726482,.00018465,87.9194,301.0353,94.5977,265.5366,0,U,54139,999,17936,.10979739E-3,.57E-6,0
